[{"OBJECT_NAME":"ASTROCAST-0404","OBJECT_ID":"2023-001DH","EPOCH":"2026-03-09T19:24:02.920896","MEAN_MOTION":15.26309833,"ECCENTRICITY":0.00068478,"INCLINATION":97.5646,"RA_OF_ASC_NODE":161.5422,"ARG_OF_PERICENTER":1.1317,"MEAN_ANOMALY":358.9936,"EPHEMERIS_TYPE":0,"CLASSIFICATION_TYPE":"U","NORAD_CAT_ID":55112,"ELEMENT_SET_NO":999,"REV_AT_EPOCH":12936,"BSTAR":0.00034435555,"MEAN_MOTION_DOT":8.87e-5,"MEAN_MOTION_DDOT":0},{"OBJECT_NAME":"STARLINK-31812","OBJECT_ID":"2024-093U","EPOCH":"2026-03-09T10:09:33.926976","MEAN_MOTION":15.27577257,"ECCENTRICITY":0.00014439,"INCLINATION":43,"RA_OF_ASC_NODE":210.4852,"ARG_OF_PERICENTER":270.2523,"MEAN_ANOMALY":89.8163,"EPHEMERIS_TYPE":0,"CLASSIFICATION_TYPE":"U","NORAD_CAT_ID":59800,"ELEMENT_SET_NO":999,"REV_AT_EPOCH":10272,"BSTAR":-6.6400018e-5,"MEAN_MOTION_DOT":-2.089e-5,"MEAN_MOTION_DDOT":0}]
